IRIDIUM 26              
1 24903U 97043A   25046.61237574  .00000870  00000+0  28734-3 0  9994
2 24903  86.4024 161.6601 0002279  99.5764 260.5691 14.36974345439286
DUMMY MASS 1            
1 24925U 97048A   25046.60782512  .00000987  00000+0  10769-3 0  9997
2 24925  86.3387 191.4859 0005571 198.8442 161.2577 14.86795132487060
DUMMY MASS 2            
1 24926U 97048B   25046.48244313  .00001016  00000+0  11169-3 0  9995
2 24926  86.3384 193.1271 0005903 215.1811 144.9025 14.86548358486822
IRIDIUM 33              
1 24946U 97051C   25046.63678585  .00000638  00000+0  21831-3 0  9996
2 24946  86.3914 194.0710 0009780 110.7492 249.4753 14.34763831435318
IRIDIUM 28              
1 24948U 97051E   25046.62933816  .00000853  00000+0  27997-3 0  9996
2 24948  86.4007 192.4104 0002430  98.7532 261.3941 14.37215477436389
IRIDIUM 36              
1 24967U 97056C   25046.54101162  .00000921  00000+0  30176-3 0  9993
2 24967  86.3948 224.0470 0002257  88.0173 272.1283 14.37411869434741
